[{"OBJECT_NAME":"STARLINK-5247","OBJECT_ID":"2022-141AY","EPOCH":"2026-03-09T23:23:21.342912","MEAN_MOTION":15.0885457,"ECCENTRICITY":0.00015492,"INCLINATION":53.2189,"RA_OF_ASC_NODE":352.6533,"ARG_OF_PERICENTER":48.7777,"MEAN_ANOMALY":311.3348,"EPHEMERIS_TYPE":0,"CLASSIFICATION_TYPE":"U","NORAD_CAT_ID":54203,"ELEMENT_SET_NO":999,"REV_AT_EPOCH":18604,"BSTAR":0.00013108326,"MEAN_MOTION_DOT":1.8e-5,"MEAN_MOTION_DDOT":0},{"OBJECT_NAME":"LEMUR-2-AHMED-ASRAR","OBJECT_ID":"2024-149DN","EPOCH":"2026-03-09T17:35:01.338432","MEAN_MOTION":15.10376432,"ECCENTRICITY":0.00016334,"INCLINATION":97.7021,"RA_OF_ASC_NODE":152.9847,"ARG_OF_PERICENTER":18.5035,"MEAN_ANOMALY":341.6253,"EPHEMERIS_TYPE":0,"CLASSIFICATION_TYPE":"U","NORAD_CAT_ID":60576,"ELEMENT_SET_NO":999,"REV_AT_EPOCH":8554,"BSTAR":0.0007977347,"MEAN_MOTION_DOT":0.00013045,"MEAN_MOTION_DDOT":0}]
